EWS-G2 (GOES 15)        
1 36411U 10008A   26181.90183625  .00000030  00000+0  00000+0 0  9997
2 36411   1.3136  82.6617 0005392  44.7242 179.7355  1.00268280 59775
FENGYUN 3B              
1 37214U 10059A   26181.96419190 -.00000304  00000+0 -13395-3 0  9991
2 37214  98.9615 228.0365 0022630 145.2202 335.6101 14.14843316809373
FENGYUN 3C              
1 39260U 13052A   26181.96647645  .00000081  00000+0  62395-4 0  9993
2 39260  98.4987 155.2090 0014440 348.6625  11.4223 14.15758071660516
FENGYUN 2G              
1 40367U 14090A   26181.60626499 -.00000295  00000+0  00000+0 0  9999
2 40367   5.6718  72.6578 0003613 150.2358  13.6327  1.00267570 42131
ELEKTRO-L 2             
1 41105U 15074A   26181.12866027 -.00000112  00000+0  00000+0 0  9991
2 41105   6.7257  70.3668 0000706 276.5342 323.0657  1.00271247 38632
FENGYUN 2H              
1 43491U 18050A   26181.81605778 -.00000121  00000+0  00000+0 0  9998
2 43491   3.0654  78.9207 0001755 121.3276  91.7215  1.00269660 29572
